[{"OBJECT_NAME":"DIWATA-2B","OBJECT_ID":"2018-084H","EPOCH":"2026-03-09T23:44:16.821312","MEAN_MOTION":14.99967379,"ECCENTRICITY":0.00117782,"INCLINATION":98.1039,"RA_OF_ASC_NODE":261.0381,"ARG_OF_PERICENTER":125.8755,"MEAN_ANOMALY":234.3563,"EPHEMERIS_TYPE":0,"CLASSIFICATION_TYPE":"U","NORAD_CAT_ID":43678,"ELEMENT_SET_NO":999,"REV_AT_EPOCH":40134,"BSTAR":0.00041230334,"MEAN_MOTION_DOT":5.066e-5,"MEAN_MOTION_DDOT":0},{"OBJECT_NAME":"STARLINK-35660","OBJECT_ID":"2025-293A","EPOCH":"2026-03-09T11:52:20.599968","MEAN_MOTION":14.98333771,"ECCENTRICITY":0.0003498,"INCLINATION":70.0002,"RA_OF_ASC_NODE":95.1494,"ARG_OF_PERICENTER":266.2084,"MEAN_ANOMALY":93.8675,"EPHEMERIS_TYPE":0,"CLASSIFICATION_TYPE":"U","NORAD_CAT_ID":67003,"ELEMENT_SET_NO":999,"REV_AT_EPOCH":1485,"BSTAR":0.00016551184,"MEAN_MOTION_DOT":1.883e-5,"MEAN_MOTION_DDOT":0}]
